                "天算9号":
                  ["1 60480U 24149N   25109.18258403  .00015685  00000+0  59424-3 0  9997",
                  "2 60480  97.4078 187.7014 0003839 334.1511  25.9535 15.26981891 37328"],
                "天算10号":
                  ["1 60481U 24149P   25109.15913814  .00015085  00000+0  58450-3 0  9991",
                  "2 60481  97.4103 187.6815 0002894 338.7467  21.3651 15.26245921 37311"],
                "天算11号":
                  ["1 60482U 24149Q   25109.64573328  .00033802  00000+0  68296-3 0  9994",
                  "2 60482  97.4081 192.4427 0001211 244.3500 115.7624 15.46416707 37673"],
                "天算12号":
                  ["1 60483U 24149R   25109.76633660  .00016118  00000+0  61118-3 0  9991",
                  "2 60483  97.4099 188.3518 0002370 336.8309  23.2823 15.26950076 37415"],
                "天算13号":
                  ["1 60484U 24149S   25109.65097767  .00013901  00000+0  53282-3 0  9992",
                  "2 60484  97.4072 188.1071 0003098 337.2875  22.8226 15.26623635 37397"],
                "天算14号":
                  ["1 60486U 24149U   25109.19042093  .00016147  00000+0  59916-3 0  9990",
                  "2 60486  97.4077 187.8283 0004153 346.8791  13.2340 15.27662023 37331"],
                "天算15号":
                  ["1 60487U 24149V   25109.20520939  .00013547  00000+0  52464-3 0  9995",
                  "2 60487  97.4127 187.8310 0002059 345.6922  14.4258 15.26289451 37324"],
                "天算16号":
                  ["1 60488U 24149W   25109.17781865  .00018583  00000+0  68889-3 0  9992",
                  "2 60488  97.4126 188.0141 0002897 347.7107  12.4061 15.27667430 37336"],
                "天算17号":
                  ["1 60489U 24149X   25109.16182556  .00013547  00000+0  53063-3 0  9997",
                  "2 60489  97.4050 187.4910 0003515 343.1326  16.9795 15.25907430 37317"],
                "天算18号":
                  ["1 60490U 24149Y   25109.65345980  .00013029  00000+0  51444-3 0  9991",
                  "2 60490  97.4122 188.1237 0003326 347.9186  12.1972 15.25649139 37386"],
                "天算19号":
                  ["1 60491U 24149Z   25109.61507637  .00013371  00000+0  50747-3 0  9992",
                  "2 60491  97.4057 188.1068 0003680 348.5898  11.5257 15.26959643 37391"],
                "天算20号":
                  ["1 60492U 24149AA  25109.79972336  .00014163  00000+0  54708-3 0  9995",
                  "2 60492  97.4123 188.4118 0002471 345.7601  14.3568 15.26363006 37414"],
                "天算21号":
                  ["1 60494U 24149AC  25109.22245016  .00014811  00000+0  56355-3 0  9993",
                  "2 60494  97.4070 187.7650 0004639 355.3216   4.7979 15.26847644 37332"],
                "天算22号":
                  ["1 60495U 24149AD  25109.20444437  .00014917  00000+0  55205-3 0  9990",
                  "2 60495  97.4115 187.9501 0004027   4.9402 355.1876 15.27767381 37334"],
                "天算23号":
                  ["1 60497U 24149AF  25109.17197774  .00015184  00000+0  57013-3 0  9993",
                  "2 60497  97.4060 187.7869 0003882 352.3069   7.8110 15.27284380 37332"],
                "天算24号":
                  ["1 60499U 24149AH  25109.18281026  .00015238  00000+0  57211-3 0  9990",
                  "2 60499  97.4134 188.0187 0003073 358.6920   1.4311 15.27290367 36716"],
                "天算25号":
                  ["1 60501U 24149AK  25109.17337724  .00014966  00000+0  55841-3 0  9994",
                  "2 60501  97.4050 187.7827 0004174 357.1320   2.9894 15.27495930 37339"],
                "天算26号":
                  ["1 60502U 24149AL  25109.18715373  .00013347  00000+0  51838-3 0  9990",
                  "2 60502  97.4065 187.6567 0004322   7.6657 352.4646 15.26191410 37323"],
                "天算27号":
                  ["1 60503U 24149AM  25109.16832632  .00014379  00000+0  55242-3 0  9996",
                  "2 60503  97.4113 187.8583 0002775   8.4813 351.6472 15.26539979 37325"],
                "天算28号":
                  ["1 60505U 24149AP  25109.65112174  .00014927  00000+0  55376-3 0  9991",
                  "2 60505  97.4057 188.3684 0004389   6.1412 353.9880 15.27686272 37413"],
                "天算29号":
                  ["1 60511U 24149AV  25108.76339826  .00017439  00000+0  62331-3 0  9994",
                  "2 60511  97.4137 187.9869 0003264  21.9239 338.2140 15.28880621 37298"],
                "天算30号":
                  ["1 60512U 24149AW  25109.22183730  .00016658  00000+0  60832-3 0  9994",
                  "2 60512  97.4048 188.0057 0004569   6.7117 353.4183 15.28180014 37358"],
                "天算31号":
                  ["1 60513U 24149AX  25109.67016442  .00011261  00000+0  44703-3 0  9993",
                  "2 60513  97.4145 188.3105 0004680  27.9083 332.2405 15.25500856 37398"],
                },
      station_loc:[
        [121.39, 37.52, 300, "天算华东站"],
        [116.20, 39.54, 300, "北京大数据分析"],
        [127.53, 50.22, 300, "黑河站"],
        [112.59, 28.12, 300, "长沙站"],
        [109.45, 24.18, 300, "天算华南站"],
        [98.50, 39.71, 300, "酒泉站"],
        [86.17, 41.72, 300, "库尔勒站"],
        [88.31, 43.36, 300, "达坂城站"],
      ],
      chosen_sate: "",
      chosen_index:-1,
      chosen_station:-1,
      chosen_coord:[115, 40],
      rotate:this.settings.autoRotate,
      base_height: 300,
      timer1:NaN,
      timer2:NaN,
      
      data:{
        time:100,
        utc_time:100,
        longitude: 100.1234,
        latitude: 30.2132,
        altitude: 500,
        speed:420,
      },
    }
  },
  // beforeRouteEnter(to, from, next) {
  //   next();
  // },
  mounted() {
    this.init();
    window.addEventListener('resize', this.handleResize);
  },
  destroyed() {
    clearInterval(this.timer1)
    clearInterval(this.timer2)
    window.removeEventListener('resize', this.handleResize);
    echarts.dispose(this.myChart)
    console.log("cleared")
  },
  methods: {
    handleResize(){
      this.myChart.resize();
    },
    init() {
      console.log("comming")
      this.myChart = echarts.init(this.$refs.refChart)
      this.myChart.setOption({
        backgroundColor: '#000',
        title: {
          show: true
        },
        geo: {
          type: 'map',
          map: world,
          boundingCoords: [
            [-180, 90],
            [180, -90]
          ],
          zoom: 0,
          roam: false,
          itemStyle: {
            borderColor: '#000d2d',
            normal: {
              areaColor: '#2455ad',
              borderColor: '#000c2d'
            },
            emphasis: {
              areaColor: '#357cf8'
            }
          },
          label: {
            fontSize: 24
          },
        }
        // series: dser,
      })
      var option = {
        backgroundColor: 'rgba(0,0,0,0)', // canvas的背景颜色
        globe: [{
          show: true,
          baseTexture: this.baseTexture,
          heightTexture: this.heightTexture,
          displacementScale: 0.04,
          environment: this.stars,
          shading: 'realistic',
          realisticMaterial: {
            roughness: 0.9
          },
          light: {
            main: {
              intensity: 3,
              shadow: true,
            },
            ambient:{
              intensity:0.3
            }
          },
          postEffect: {
            enable: true,
          },
          top: 'middle',
          left: 'center',
          globeRadius: 120,
          globeOuterRadius: 150,
          viewControl: {
            distance: 240,
            autoRotate: this.rotate
          },
          layers: [
            {
              type: 'blend',
              blendTo: 'emission',
              texture: this.night
            },
            // {
            //   type: 'overlay',
            //   texture: this.cloud,
            //   shading: 'lambert',
            //   distance: 5
            // }
          ]
        }],
      }

      this.myChart.setOption(option)
      this.renewData()
      this.setSateToCenter()
      let that = this
      this.myChart.on('click', function (params) {
        if(params.data[3]=="北京大数据分析"){
          // that.zoomSpace(params.data[0], params.data[1])
          that.$emit('zoom-event', {name:"北京大数据分析",coord:[params.data[0], params.data[1]]});
        }
        else if(params.data[3]=="天算华东站"){
          // that.zoomSpace(params.data[0], params.data[1])
          that.$emit('zoom-event', {name:"天算华东站",coord:[params.data[0], params.data[1]]});
        }
        else{
          that.setSateToCenter([params.data[0], params.data[1]])
        }
      });
      this.timer1 = setInterval(() => {
        this.renewData()
      }, 15000)
      this.timer2 = setInterval(() => {
        this.updateData()
      }, 1000)
    },
    stopEarth(){
      var option = this.myChart.getOption()
      option.globe[0].viewControl.autoRotate = false
      this.rotate = false
      this.myChart.setOption(option)
    },
    rotateEarth(){
      var option = this.myChart.getOption()
      option.globe[0].viewControl.autoRotate = true
      this.rotate = true
      this.myChart.setOption(option)
    },
    getCircleArea(place, angle) {
      var lon=place[0], lat=place[1], alti=place[2];
      var cot = Math.cos(Math.PI*angle/180)/Math.sin(Math.PI*angle/180)
      var r = alti * cot, R = 6371;
      // generate a circle
      var sample_rate = 64, i=0;
      var circle = [];
      
